SatCatId,ObjectName,LaunchYear,OrbitalPeriod,LaunchMass,StatusCode,Inclination,Status,UcsData,OrbitClassEstimated,LaunchSiteCountry,Owner,UseType,Purpose,LaunchVehicleClass,TLE1,TLE2,MeanMotion,Eccentricity,OrbitClass
46757,STARLINK-1926,2020,95.59,260.0,+,53.05,Active,1,LEO,USA,USA,Commercial,Communications,Falcon,1 46757U 20074U   23276.53553633  .00005541  00000+0  39074-3 0  9995,2 46757  53.0551 353.9389 0001605 100.5946 259.5224 15.06385625162758,15.06385625,0.0001605,LEO
46758,STARLINK-1928,2020,95.59,260.0,+,53.06,Active,1,LEO,USA,USA,Commercial,Communications,Falcon,1 46758U 20074V   23275.94206604 -.00000691  00000+0 -27536-4 0  9997,2 46758  53.0551 356.3615 0001445  97.4660 262.6493 15.06386351162678,15.06386351,0.0001445,LEO
46759,STARLINK-1833,2020,95.59,260.0,+,53.06,Active,1,LEO,USA,USA,Commercial,Communications,Falcon,1 46759U 20074W   23276.53457785  .00002629  00000+0  19533-3 0  9990,2 46759  53.0559   3.7038 0001454  96.6168 263.4987 15.06399838162337,15.06399838,0.0001454,LEO
46760,STARLINK-1896,2020,95.59,260.0,+,53.06,Active,1,LEO,USA,USA,Commercial,Communications,Falcon,1 46760U 20074X   23275.94851826  .00008705  00000+0  60299-3 0  9996,2 46760  53.0570   6.3314 0001675  80.6998 279.4180 15.06375440162534,15.0637544,0.0001675,LEO
46764,STARLINK-1903,2020,95.59,260.0,+,53.06,Active,1,LEO,USA,USA,Commercial,Communications,Falcon,1 46764U 20074AB  23276.53826824  .00031748  00000+0  21401-2 0  9990,2 46764  53.0559   3.6856 0001391  86.3377 273.7770 15.06410155162620,15.06410155,0.0001391,LEO
46765,STARLINK-1906,2020,95.59,260.0,+,53.06,Active,1,LEO,USA,USA,Commercial,Communications,Falcon,1 46765U 20074AC  23276.52721261 -.00000280  00000+0  88276-7 0  9995,2 46765  53.0569   3.7322 0001479  97.2042 262.9115 15.06392730162326,15.0639273,0.0001479,LEO
46766,STARLINK-1916,2020,95.59,260.0,+,53.06,Active,1,LEO,USA,USA,Commercial,Communications,Falcon,1 46766U 20074AD  23275.98906438  .00008872  00000+0  61409-3 0  9995,2 46766  53.0561   6.1515 0001824  88.9176 271.2022 15.06380836162255,15.06380836,0.0001824,LEO
46767,STARLINK-1917,2020,95.59,260.0,+,53.06,Active,1,LEO,USA,USA,Commercial,Communications,Falcon,1 46767U 20074AE  23276.21759516  .00003893  00000+0  28036-3 0  9993,2 46767  53.0552   5.1249 0002160  82.9351 277.1884 15.06370272162560,15.06370272,0.000216,LEO
46768,STARLINK-1918,2020,95.59,260.0,+,53.06,Active,1,LEO,USA,USA,Commercial,Communications,Falcon,1 46768U 20074AF  23276.55301839  .00007540  00000+0  52477-3 0  9991,2 46768  53.0561   3.6219 0001677  94.3041 265.8140 15.06383743162629,15.06383743,0.0001677,LEO
46770,STARLINK-1932,2020,95.59,260.0,+,53.06,Active,1,LEO,USA,USA,Commercial,Communications,Falcon,1 46770U 20074AH  23276.49411295  .00007525  00000+0  52384-3 0  9995,2 46770  53.0563   4.4370 0002175 103.0686 257.0546 15.06379425162601,15.06379425,0.0002175,LEO
46772,STARLINK-1936,2020,95.59,260.0,+,53.06,Active,1,LEO,USA,USA,Commercial,Communications,Falcon,1 46772U 20074AK  23276.22769833 -.00000165  00000+0  78655-5 0  9997,2 46772  53.0544   5.0713 0002023  90.3084 269.8137 15.06392014162574,15.06392014,0.0002023,LEO
46779,STARLINK-1798,2020,95.59,260.0,+,53.05,Active,1,LEO,USA,USA,Commercial,Communications,Falcon,1 46779U 20074AS  23276.19225387 -.00000575  00000+0 -19708-4 0  9990,2 46779  53.0546 340.2403 0001546  78.6672 281.4490 15.06381719162611,15.06381719,0.0001546,LEO
46780,STARLINK-1832,2020,95.59,260.0,+,53.05,Active,1,LEO,USA,USA,Commercial,Communications,Falcon,1 46780U 20074AT  23276.44658690  .00026045  00000+0  17614-2 0  9997,2 46780  53.0542 339.0976 0001386  93.6595 266.4552 15.06389909162669,15.06389909,0.0001386,LEO
46781,STARLINK-1834,2020,95.59,260.0,+,53.06,Active,1,LEO,USA,USA,Commercial,Communications,Falcon,1 46781U 20074AU  23276.19870584  .00001195  00000+0  99175-4 0  9991,2 46781  53.0542 350.2133 0001307  97.5363 262.5774 15.06374415162499,15.06374415,0.0001307,LEO
46782,STARLINK-1835,2020,95.59,260.0,+,53.05,Active,1,LEO,USA,USA,Commercial,Communications,Falcon,1 46782U 20074AV  23276.17013721  .00002638  00000+0  19594-3 0  9991,2 46782  53.0550 340.3393 0001433  99.7195 260.3956 15.06392750162618,15.0639275,0.0001433,LEO
46783,STARLINK-1851,2020,95.59,260.0,+,53.05,Active,1,LEO,USA,USA,Commercial,Communications,Falcon,1 46783U 20074AW  23276.18487608  .00001323  00000+0  10769-3 0  9997,2 46783  53.0531 340.2709 0001923  98.4659 261.6548 15.06401730162624,15.0640173,0.0001923,LEO
46784,STARLINK-1882,2020,95.59,260.0,+,53.05,Active,1,LEO,USA,USA,Commercial,Communications,Falcon,1 46784U 20074AX  23276.45299124  .00019325  00000+0  13135-2 0  9992,2 46784  53.0543 339.0589 0001598  97.9005 262.2166 15.06376362162600,15.06376362,0.0001598,LEO
46785,STARLINK-1883,2020,95.59,260.0,+,53.05,Active,1,LEO,USA,USA,Commercial,Communications,Falcon,1 46785U 20074AY  23276.43920738 -.00000034  00000+0  16581-4 0  9991,2 46785  53.0536 339.1304 0001240  97.0471 263.0659 15.06384045162615,15.06384045,0.000124,LEO
46786,STARLINK-1893,2020,95.59,260.0,+,53.05,Active,1,LEO,USA,USA,Commercial,Communications,Falcon,1 46786U 20074AZ  23276.41891618  .00020494  00000+0  13915-2 0  9991,2 46786  53.0543 319.2230 0001388  95.9541 264.1606 15.06380239162894,15.06380239,0.0001388,LEO
46787,STARLINK-1899,2020,95.59,260.0,+,53.05,Active,1,LEO,USA,USA,Commercial,Communications,Falcon,1 46787U 20074BA  23276.41154626  .00023168  00000+0  15703-2 0  9991,2 46787  53.0541 319.2555 0001355  91.8939 268.2206 15.06372141162897,15.06372141,0.0001355,LEO
46788,STARLINK-1929,2020,95.59,260.0,+,53.05,Active,1,LEO,USA,USA,Commercial,Communications,Falcon,1 46788U 20074BB  23276.13877951  .00001866  00000+0  14420-3 0  9991,2 46788  53.0536 320.4800 0001614  94.3117 265.8056 15.06386897162858,15.06386897,0.0001614,LEO
46789,STARLINK-1930,2020,95.59,260.0,+,53.05,Active,1,LEO,USA,USA,Commercial,Communications,Falcon,1 46789U 20074BC  23276.49359527  .00012871  00000+0  88176-3 0  9992,2 46789  53.0557 349.0475 0001524  89.3919 270.7244 15.06385582162484,15.06385582,0.0001524,LEO
46790,STARLINK-1931,2020,95.59,260.0,+,53.06,Active,1,LEO,USA,USA,Commercial,Communications,Falcon,1 46790U 20074BD  23276.52306403 -.00000715  00000+0 -29100-4 0  9992,2 46790  53.0550 348.7526 0001562  93.9399 266.1769 15.06393756162480,15.06393756,0.0001562,LEO
46791,STARLINK-1933,2020,95.59,260.0,+,53.05,Active,1,LEO,USA,USA,Commercial,Communications,Falcon,1 46791U 20074BE  23276.20607368  .00002156  00000+0  16367-3 0  9991,2 46791  53.0540 350.1742 0001557  78.7849 281.3315 15.06382974162433,15.06382974,0.0001557,LEO
46792,STARLINK-1934,2020,95.59,260.0,+,53.06,Active,1,LEO,USA,USA,Commercial,Communications,Falcon,1 46792U 20074BF  23276.16645185  .00001708  00000+0  13359-3 0  9996,2 46792  53.0552 340.3572 0001853  97.9601 262.1598 15.06384769162565,15.06384769,0.0001853,LEO
46793,STARLINK-1941,2020,95.59,260.0,+,53.06,Active,1,LEO,USA,USA,Commercial,Communications,Falcon,1 46793U 20074BG  23276.52675786  .00008463  00000+0  58676-3 0  9993,2 46793  53.0540 348.7390 0001814  85.0337 275.0859 15.06374654162480,15.06374654,0.0001814,LEO
46794,STARLINK-1942,2020,95.59,260.0,+,53.06,Active,1,LEO,USA,USA,Commercial,Communications,Falcon,1 46794U 20074BH  23276.20239027  .00004037  00000+0  28989-3 0  9990,2 46794  53.0536 350.1971 0001775  86.8252 273.2940 15.06384282162433,15.06384282,0.0001775,LEO
46796,STARLINK-1944,2020,95.59,260.0,+,53.05,Active,1,LEO,USA,USA,Commercial,Communications,Falcon,1 46796U 20074BK  23276.44290102  .00002197  00000+0  16642-3 0  9997,2 46796  53.0542 339.1137 0001340 104.8542 255.2595 15.06379810162611,15.0637981,0.000134,LEO
46798,STARLINK-1948,2020,95.59,260.0,+,53.05,Active,1,LEO,USA,USA,Commercial,Communications,Falcon,1 46798U 20074BM  23276.20927711  .00009934  00000+0  68534-3 0  9999,2 46798  53.0558   5.1612 0001378  92.9098 267.2049 15.06374102162292,15.06374102,0.0001378,LEO
46805,COSMOS 2547 [GLONASS-K],2020,675.73,1415.0,+,64.61,Active,1,MEO,Russia,Russia/USSR,Commercial/Military,Navigation (Global or Regional Positioning),Soyuz,1 46805U 20075A   23276.15171786  .00000029  00000+0  00000+0 0  9992,2 46805  64.6136 225.5351 0007920 243.6519 116.2528  2.13102810 22852,2.1310281,0.000792,MEO
46807,YAOGAN-30 U,2020,96.45,-1.0,+,35.0,Active,1,LEO,PRC,China,Military,Earth Observation,Long March,1 46807U 20076A   23276.51380236  .00004654  00000+0  44183-3 0  9999,2 46807  34.9950 309.1616 0001480 166.9961 193.0782 14.92990380160028,14.9299038,0.000148,LEO
46808,YAOGAN-30 V,2020,96.45,-1.0,+,35.0,Active,1,LEO,PRC,China,Military,Earth Observation,Long March,1 46808U 20076B   23276.49014613  .00004412  00000+0  41907-3 0  9993,2 46808  34.9955 309.0116 0001700  45.5344 314.5500 14.92980187160022,14.92980187,0.00017,LEO
46809,YAOGAN-30 W,2020,96.45,-1.0,+,35.0,Active,1,LEO,PRC,China,Military,Earth Observation,Long March,1 46809U 20076C   23276.46889662  .00004537  00000+0  43029-3 0  9990,2 46809  34.9968 308.9381 0006705 118.4467 241.6915 14.93016418160012,14.93016418,0.0006705,LEO
46810,TIANQI-6,2020,96.35,-1.0,+,35.0,Active,0,LEO,PRC,China,Unknown,Unknown,Long March,1 46810U 20076D   23276.44999209  .00005065  00000+0  46005-3 0  9993,2 46810  35.0025 294.3108 0013833 183.0656 176.9966 14.94637229160176,14.94637229,0.0013833,LEO
46812,FLOCK 4V-25,2020,93.09,4.0,+,97.33,Active,1,LEO,French Guiana,USA,Commercial,Earth Observation,ION,1 46812U 20061BP  23276.17106915  .00052880  00000+0  10400-2 0  9999,2 46812  97.3342 349.2804 0002258 190.5629 169.5573 15.47101315163239,15.47101315,0.0002258,LEO
46814,FLOCK 4E'-7,2020,93.0,4.0,+,97.36,Active,1,LEO,New Zealand,USA,Commercial,Earth Observation,Electron,1 46814U 20077B   23275.65762269  .00071638  00000+0  13383-2 0  9995,2 46814  97.3552 343.0005 0007039 162.0395 198.1105 15.48483528162828,15.48483528,0.0007039,LEO
